[{"OBJECT_NAME":"STARLINK-11616 [DTC]","OBJECT_ID":"2025-043F","EPOCH":"2026-01-11T15:24:29.559456","MEAN_MOTION":15.70920203,"ECCENTRICITY":0.00029553,"INCLINATION":43.0005,"RA_OF_ASC_NODE":234.2549,"ARG_OF_PERICENTER":247.3327,"MEAN_ANOMALY":112.7228,"EPHEMERIS_TYPE":0,"CLASSIFICATION_TYPE":"U","NORAD_CAT_ID":63137,"ELEMENT_SET_NO":999,"REV_AT_EPOCH":5050,"BSTAR":0.0021579325,"MEAN_MOTION_DOT":0.00287207,"MEAN_MOTION_DDOT":0},{"OBJECT_NAME":"STARLINK-11611 [DTC]","OBJECT_ID":"2025-043G","EPOCH":"2026-01-11T14:14:33.343872","MEAN_MOTION":15.70906762,"ECCENTRICITY":0.0002202,"INCLINATION":43.0014,"RA_OF_ASC_NODE":234.7589,"ARG_OF_PERICENTER":277.6173,"MEAN_ANOMALY":82.4445,"EPHEMERIS_TYPE":0,"CLASSIFICATION_TYPE":"U","NORAD_CAT_ID":63138,"ELEMENT_SET_NO":999,"REV_AT_EPOCH":5049,"BSTAR":0.00028555518,"MEAN_MOTION_DOT":0.00036457,"MEAN_MOTION_DDOT":0},{"OBJECT_NAME":"STARLINK-11628 [DTC]","OBJECT_ID":"2025-043H","EPOCH":"2026-01-11T08:15:58.197312","MEAN_MOTION":15.7097317,"ECCENTRICITY":0.00028071,"INCLINATION":43.0008,"RA_OF_ASC_NODE":236.3346,"ARG_OF_PERICENTER":269.6619,"MEAN_ANOMALY":90.3927,"EPHEMERIS_TYPE":0,"CLASSIFICATION_TYPE":"U","NORAD_CAT_ID":63139,"ELEMENT_SET_NO":999,"REV_AT_EPOCH":5045,"BSTAR":0.0018228274,"MEAN_MOTION_DOT":0.00241737,"MEAN_MOTION_DDOT":0},{"OBJECT_NAME":"STARLINK-11607 [DTC]","OBJECT_ID":"2025-043J","EPOCH":"2026-01-11T15:30:49.805856","MEAN_MOTION":15.70914326,"ECCENTRICITY":0.00020774,"INCLINATION":42.9996,"RA_OF_ASC_NODE":234.2888,"ARG_OF_PERICENTER":262.267,"MEAN_ANOMALY":97.7962,"EPHEMERIS_TYPE":0,"CLASSIFICATION_TYPE":"U","NORAD_CAT_ID":63140,"ELEMENT_SET_NO":999,"REV_AT_EPOCH":5050,"BSTAR":0.0017619566,"MEAN_MOTION_DOT":0.0023281,"MEAN_MOTION_DDOT":0},{"OBJECT_NAME":"STARLINK-11522 [DTC]","OBJECT_ID":"2025-043K","EPOCH":"2026-01-10T15:13:32.544480","MEAN_MOTION":15.70944536,"ECCENTRICITY":0.00023494,"INCLINATION":42.999,"RA_OF_ASC_NODE":240.4635,"ARG_OF_PERICENTER":273.4286,"MEAN_ANOMALY":86.6313,"EPHEMERIS_TYPE":0,"CLASSIFICATION_TYPE":"U","NORAD_CAT_ID":63141,"ELEMENT_SET_NO":999,"REV_AT_EPOCH":5016,"BSTAR":0.0014524166,"MEAN_MOTION_DOT":0.00191108,"MEAN_MOTION_DDOT":0},{"OBJECT_NAME":"STARLINK-11503 [DTC]","OBJECT_ID":"2025-043L","EPOCH":"2026-01-11T15:15:32.350176","MEAN_MOTION":15.70906625,"ECCENTRICITY":0.00017201,"INCLINATION":42.999,"RA_OF_ASC_NODE":234.2028,"ARG_OF_PERICENTER":258.5766,"MEAN_ANOMALY":101.4908,"EPHEMERIS_TYPE":0,"CLASSIFICATION_TYPE":"U","NORAD_CAT_ID":63142,"ELEMENT_SET_NO":999,"REV_AT_EPOCH":5032,"BSTAR":0.0016995862,"MEAN_MOTION_DOT":0.00224244,"MEAN_MOTION_DDOT":0},{"OBJECT_NAME":"STARLINK-11579 [DTC]","OBJECT_ID":"2025-043M","EPOCH":"2026-01-11T15:23:11.236128","MEAN_MOTION":15.71044844,"ECCENTRICITY":0.00025891,"INCLINATION":43.0002,"RA_OF_ASC_NODE":234.2441,"ARG_OF_PERICENTER":282.3705,"MEAN_ANOMALY":77.6873,"EPHEMERIS_TYPE":0,"CLASSIFICATION_TYPE":"U","NORAD_CAT_ID":63143,"ELEMENT_SET_NO":999,"REV_AT_EPOCH":5038,"BSTAR":0.0015233034,"MEAN_MOTION_DOT":0.00201564,"MEAN_MOTION_DDOT":0},{"OBJECT_NAME":"STARLINK-11581 [DTC]","OBJECT_ID":"2025-043N","EPOCH":"2026-01-11T00:45:49.575456","MEAN_MOTION":15.70905721,"ECCENTRICITY":0.00017113,"INCLINATION":43.0004,"RA_OF_ASC_NODE":238.291,"ARG_OF_PERICENTER":273.7324,"MEAN_ANOMALY":86.3348,"EPHEMERIS_TYPE":0,"CLASSIFICATION_TYPE":"U","NORAD_CAT_ID":63144,"ELEMENT_SET_NO":999,"REV_AT_EPOCH":5040,"BSTAR":0.0013912643,"MEAN_MOTION_DOT":0.00182548,"MEAN_MOTION_DDOT":0},{"OBJECT_NAME":"STARLINK-32949","OBJECT_ID":"2025-043P","EPOCH":"2026-01-11T05:52:04.423296","MEAN_MOTION":15.27600182,"ECCENTRICITY":0.00016263,"INCLINATION":43.0008,"RA_OF_ASC_NODE":340.9277,"ARG_OF_PERICENTER":265.9324,"MEAN_ANOMALY":94.1342,"EPHEMERIS_TYPE":0,"CLASSIFICATION_TYPE":"U","NORAD_CAT_ID":63145,"ELEMENT_SET_NO":999,"REV_AT_EPOCH":4914,"BSTAR":0.0011065419,"MEAN_MOTION_DOT":0.00030332,"MEAN_MOTION_DDOT":0},{"OBJECT_NAME":"STARLINK-32952","OBJECT_ID":"2025-043Q","EPOCH":"2026-01-11T14:34:54.244128","MEAN_MOTION":15.27598475,"ECCENTRICITY":0.00012186,"INCLINATION":42.9977,"RA_OF_ASC_NODE":345.4027,"ARG_OF_PERICENTER":283.8464,"MEAN_ANOMALY":76.2252,"EPHEMERIS_TYPE":0,"CLASSIFICATION_TYPE":"U","NORAD_CAT_ID":63146,"ELEMENT_SET_NO":999,"REV_AT_EPOCH":4918,"BSTAR":0.00082489128,"MEAN_MOTION_DOT":0.00022519,"MEAN_MOTION_DDOT":0},{"OBJECT_NAME":"STARLINK-32936","OBJECT_ID":"2025-043R","EPOCH":"2026-01-11T14:38:36.343104","MEAN_MOTION":15.27605186,"ECCENTRICITY":0.00010666,"INCLINATION":42.999,"RA_OF_ASC_NODE":345.4421,"ARG_OF_PERICENTER":260.4975,"MEAN_ANOMALY":99.5756,"EPHEMERIS_TYPE":0,"CLASSIFICATION_TYPE":"U","NORAD_CAT_ID":63147,"ELEMENT_SET_NO":999,"REV_AT_EPOCH":4855,"BSTAR":0.0010789732,"MEAN_MOTION_DOT":0.00029571,"MEAN_MOTION_DDOT":0},{"OBJECT_NAME":"STARLINK-32937","OBJECT_ID":"2025-043S","EPOCH":"2026-01-11T06:49:13.332576","MEAN_MOTION":15.27597053,"ECCENTRICITY":9.462e-5,"INCLINATION":43.0018,"RA_OF_ASC_NODE":340.3683,"ARG_OF_PERICENTER":264.8512,"MEAN_ANOMALY":95.2232,"EPHEMERIS_TYPE":0,"CLASSIFICATION_TYPE":"U","NORAD_CAT_ID":63148,"ELEMENT_SET_NO":999,"REV_AT_EPOCH":4858,"BSTAR":0.0009916919,"MEAN_MOTION_DOT":0.00027142,"MEAN_MOTION_DDOT":0},{"OBJECT_NAME":"STARLINK-32939","OBJECT_ID":"2025-043T","EPOCH":"2026-01-11T14:25:12.112032","MEAN_MOTION":15.2760216,"ECCENTRICITY":0.00011151,"INCLINATION":43.0031,"RA_OF_ASC_NODE":338.4434,"ARG_OF_PERICENTER":296.9011,"MEAN_ANOMALY":63.1726,"EPHEMERIS_TYPE":0,"CLASSIFICATION_TYPE":"U","NORAD_CAT_ID":63149,"ELEMENT_SET_NO":999,"REV_AT_EPOCH":4863,"BSTAR":0.0013568071,"MEAN_MOTION_DOT":0.00037288,"MEAN_MOTION_DDOT":0},{"OBJECT_NAME":"STARLINK-32919","OBJECT_ID":"2025-043U","EPOCH":"2026-01-11T14:45:31.780224","MEAN_MOTION":15.27620229,"ECCENTRICITY":7.92e-5,"INCLINATION":43.0032,"RA_OF_ASC_NODE":338.5459,"ARG_OF_PERICENTER":9.6311,"MEAN_ANOMALY":350.4556,"EPHEMERIS_TYPE":0,"CLASSIFICATION_TYPE":"U","NORAD_CAT_ID":63150,"ELEMENT_SET_NO":999,"REV_AT_EPOCH":4863,"BSTAR":0.00070989578,"MEAN_MOTION_DOT":0.00019348,"MEAN_MOTION_DDOT":0},{"OBJECT_NAME":"STARLINK-32876","OBJECT_ID":"2025-043V","EPOCH":"2026-01-11T04:32:30.515712","MEAN_MOTION":15.2758848,"ECCENTRICITY":7.912e-5,"INCLINATION":42.9983,"RA_OF_ASC_NODE":340.5072,"ARG_OF_PERICENTER":270.848,"MEAN_ANOMALY":89.228,"EPHEMERIS_TYPE":0,"CLASSIFICATION_TYPE":"U","NORAD_CAT_ID":63151,"ELEMENT_SET_NO":999,"REV_AT_EPOCH":4857,"BSTAR":0.00087982965,"MEAN_MOTION_DOT":0.00024034,"MEAN_MOTION_DDOT":0},{"OBJECT_NAME":"STARLINK-32915","OBJECT_ID":"2025-043W","EPOCH":"2026-01-11T14:40:26.850432","MEAN_MOTION":15.27594329,"ECCENTRICITY":0.00010978,"INCLINATION":42.9998,"RA_OF_ASC_NODE":345.402,"ARG_OF_PERICENTER":278.1665,"MEAN_ANOMALY":81.9062,"EPHEMERIS_TYPE":0,"CLASSIFICATION_TYPE":"U","NORAD_CAT_ID":63152,"ELEMENT_SET_NO":999,"REV_AT_EPOCH":4855,"BSTAR":0.00065737773,"MEAN_MOTION_DOT":0.00017879,"MEAN_MOTION_DDOT":0}]
