STARLINK-11616 [DTC]    
1 63137U 25043F   26011.64200879  .00287207  00000+0  21579-2 0  9991
2 63137  43.0005 234.2549 0002955 247.3327 112.7228 15.70920203 50504
STARLINK-11611 [DTC]    
1 63138U 25043G   26011.59344148  .00036457  00000+0  28556-3 0  9996
2 63138  43.0014 234.7589 0002202 277.6173  82.4445 15.70906762 50490
STARLINK-11628 [DTC]    
1 63139U 25043H   26011.34442358  .00241737  00000+0  18228-2 0  9995
2 63139  43.0008 236.3346 0002807 269.6619  90.3927 15.70973170 50456
STARLINK-11607 [DTC]    
1 63140U 25043J   26011.64640979  .00232810  00000+0  17620-2 0  9996
2 63140  42.9996 234.2888 0002077 262.2670  97.7962 15.70914326 50509
STARLINK-11522 [DTC]    
1 63141U 25043K   26010.63440445  .00191108  00000+0  14524-2 0  9995
2 63141  42.9990 240.4635 0002349 273.4286  86.6313 15.70944536 50167
STARLINK-11503 [DTC]    
1 63142U 25043L   26011.63579109  .00224244  00000+0  16996-2 0  9990
2 63142  42.9990 234.2028 0001720 258.5766 101.4908 15.70906625 50325
STARLINK-11579 [DTC]    
1 63143U 25043M   26011.64110227  .00201564  00000+0  15233-2 0  9997
2 63143  43.0002 234.2441 0002589 282.3705  77.6873 15.71044844 50381
STARLINK-11581 [DTC]    
1 63144U 25043N   26011.03182379  .00182548  00000+0  13913-2 0  9991
2 63144  43.0004 238.2910 0001711 273.7324  86.3348 15.70905721 50402
STARLINK-32949          
1 63145U 25043P   26011.24449564  .00030332  00000+0  11065-2 0  9996
2 63145  43.0008 340.9277 0001626 265.9324  94.1342 15.27600182 49147
STARLINK-32952          
1 63146U 25043Q   26011.60757227  .00022519  00000+0  82489-3 0  9992
2 63146  42.9977 345.4027 0001218 283.8464  76.2252 15.27598475 49181
STARLINK-32936          
1 63147U 25043R   26011.61014286  .00029571  00000+0  10790-2 0  9995
2 63147  42.9990 345.4421 0001066 260.4975  99.5756 15.27605186 48559
STARLINK-32937          
1 63148U 25043S   26011.28418209  .00027142  00000+0  99169-3 0  9992
2 63148  43.0018 340.3683 0000946 264.8512  95.2232 15.27597053 48586
STARLINK-32939          
1 63149U 25043T   26011.60083463  .00037288  00000+0  13568-2 0  9999
2 63149  43.0031 338.4434 0001115 296.9011  63.1726 15.27602160 48637
STARLINK-32919          
1 63150U 25043U   26011.61495116  .00019348  00000+0  70990-3 0  9994
2 63150  43.0032 338.5459 0000792   9.6311 350.4556 15.27620229 48639
STARLINK-32876          
1 63151U 25043V   26011.18924208  .00024034  00000+0  87983-3 0  9994
2 63151  42.9983 340.5072 0000791 270.8480  89.2280 15.27588480 48571
STARLINK-32915          
1 63152U 25043W   26011.61142188  .00017879  00000+0  65738-3 0  9995
2 63152  42.9998 345.4020 0001097 278.1665  81.9062 15.27594329 48555
